{"type":"FeatureCollection","features":[{"type":"Feature","properties":{"id":"kml_1","priority":"0","stress":"2","tessellate":1,"kmlStyleUrl":"#line-7CB342-6425-nodesc","kmlStyleIdResolved":"line-7CB342-6425-nodesc-normal","stroke":"#7cb342","stroke-opacity":1,"stroke-width":6.425},"geometry":{"type":"LineString","coordinates":[[14.2722548,48.3061543],[14.2721515,48.3061311],[14.271957,48.3061204],[14.2716835,48.3061516],[14.2713401,48.3061775],[14.2711006,48.3062108],[14.2709571,48.306234],[14.2707801,48.3062447],[14.2701068,48.306358],[14.2698426,48.3064401],[14.2696012,48.3064998],[14.2690715,48.3066443],[14.2682494,48.3069093],[14.2680067,48.3070261],[14.266923,48.307424],[14.265822,48.3078316],[14.265354,48.3079726],[14.2649851,48.3080626],[14.2643267,48.308192],[14.2642422,48.3081956],[14.2641335,48.3082232],[14.2626959,48.3084498],[14.2620964,48.3085577],[14.2615747,48.3086763],[14.260927,48.3088547],[14.2597374,48.3092633],[14.2591688,48.309455],[14.2590588,48.3094845],[14.258969,48.3095264],[14.2580798,48.3098332],[14.2574723,48.310033],[14.2567427,48.3103033],[14.2562988,48.3104603],[14.2559367,48.3105709],[14.2552018,48.3107948],[14.2550784,48.3108198],[14.2547485,48.3108768],[14.2543354,48.3109259],[14.2539546,48.3109562],[14.2533672,48.3109758],[14.2527811,48.3109669],[14.252191,48.3109874],[14.2518839,48.3110053],[14.2514695,48.3110713],[14.25052,48.3111533],[14.2499621,48.3112131],[14.2486411,48.3113576],[14.2482388,48.3113995],[14.2476849,48.3115173],[14.2475937,48.3115699],[14.2468373,48.3116876],[14.2467139,48.3116725],[14.246612,48.3116849],[14.2454748,48.3119347],[14.2450335,48.3119909],[14.2444837,48.3120408],[14.2444005,48.3120364],[14.2442879,48.3119374],[14.2442061,48.3117902],[14.2441055,48.311709],[14.2439513,48.3116653],[14.2433545,48.3115342],[14.2430675,48.3114843],[14.2429374,48.3114816],[14.2427805,48.3115128],[14.2425552,48.3116163],[14.2423889,48.3116653],[14.2421998,48.3116573],[14.2419436,48.3116305],[14.2418806,48.3116412],[14.2417954,48.3116475],[14.241723,48.3116235],[14.2415983,48.3115798],[14.2414964,48.3115798],[14.2414347,48.311735],[14.2412791,48.3117608],[14.2409492,48.311809],[14.2405093,48.3117573],[14.23982,48.3116734],[14.2392876,48.3116003],[14.2387096,48.311545],[14.2384226,48.3115048],[14.2381409,48.3115146],[14.2378754,48.3115378],[14.2374181,48.3115057],[14.2368266,48.3114486],[14.2360072,48.3113568],[14.2355204,48.3112952],[14.234929,48.3112167],[14.2346272,48.3111623],[14.2343952,48.3110945],[14.2342611,48.3110241],[14.2341538,48.3109233],[14.2341699,48.3108671],[14.234072,48.3107824],[14.2339996,48.3107547],[14.2338561,48.3107431],[14.2338078,48.3107083],[14.2337528,48.3107056],[14.2337005,48.3107279],[14.2336214,48.3107672],[14.2335557,48.3108082],[14.2335289,48.3108831],[14.2335275,48.3109411],[14.233545,48.3109777],[14.2333867,48.3113586],[14.2333599,48.3114121],[14.2333197,48.3114317],[14.2332687,48.3114326],[14.233211,48.311413],[14.2331882,48.3113862],[14.2331976,48.3113479],[14.233199,48.3113327]]}},{"type":"Feature","properties":{"id":"kml_2","priority":"0","stress":"2","tessellate":1,"kmlStyleUrl":"#line-1A237E-7006","kmlStyleIdResolved":"line-1A237E-7006-normal","stroke":"#1a237e","stroke-opacity":1,"stroke-width":7.006},"geometry":{"type":"LineString","coordinates":[[14.2333946,48.3108595],[14.2319811,48.3108289],[14.2301143,48.3111625],[14.2264987,48.3118689],[14.2243851,48.3122703],[14.2235751,48.3123648],[14.2231915,48.312388],[14.2216895,48.3123916],[14.2198307,48.3124933],[14.2174543,48.3129356],[14.2156035,48.3139881],[14.2135329,48.3151743],[14.2109633,48.3167511],[14.2104886,48.3172595],[14.208603,48.3195265],[14.2082167,48.3199278],[14.2074013,48.3205003],[14.2051831,48.3216561],[14.2045475,48.3220895],[14.2035792,48.3228403],[14.2020557,48.3237249],[14.2000065,48.3248521],[14.1983274,48.3258044],[14.1963721,48.3276787],[14.1944731,48.3297099],[14.1934994,48.3306496],[14.1927323,48.3312327],[14.1915978,48.3316732],[14.1905946,48.3325594],[14.1905115,48.3327876],[14.1887117,48.3333244],[14.1850585,48.3348614]]}},{"type":"Feature","properties":{"id":"kml_3","priority":"0","stress":"2","tessellate":1,"kmlStyleUrl":"#icon-1899-DB4436-nodesc","kmlStyleIdResolved":"icon-1899-DB4436-nodesc-normal","marker-color":"#db4436","marker-opacity":1,"marker-scale":1,"icon-href":"https://www.gstatic.com/mapspro/images/stock/503-wht-blank_maps.png"},"geometry":{"type":"Point","coordinates":[14.2724348,48.3064492]}},{"type":"Feature","properties":{"id":"kml_4","priority":"0","stress":"2","tessellate":1,"kmlStyleUrl":"#icon-1899-DB4436-nodesc","kmlStyleIdResolved":"icon-1899-DB4436-nodesc-normal","marker-color":"#db4436","marker-opacity":1,"marker-scale":1,"icon-href":"https://www.gstatic.com/mapspro/images/stock/503-wht-blank_maps.png"},"geometry":{"type":"Point","coordinates":[14.1832664,48.3371799]}},{"type":"Feature","properties":{"id":"kml_5","priority":"0","stress":"2","tessellate":1,"kmlStyleUrl":"#line-1A237E-6425","kmlStyleIdResolved":"line-1A237E-6425-normal","stroke":"#1a237e","stroke-opacity":1,"stroke-width":6.425},"geometry":{"type":"LineString","coordinates":[[14.2852272,48.3071382],[14.2848826,48.3070383],[14.28433,48.3068848],[14.2835495,48.3066993],[14.2822835,48.3064504],[14.281216,48.3062363],[14.2802719,48.3059964],[14.279891,48.3058652],[14.2794672,48.3057163],[14.2786089,48.3054023],[14.2772436,48.3048974],[14.2763719,48.3045727],[14.2757577,48.3044139],[14.2751716,48.3043149],[14.2751099,48.3043273],[14.2746459,48.3042658],[14.2734604,48.3041587],[14.2726021,48.3039438],[14.2721153,48.3038679],[14.2708734,48.3039768],[14.2690857,48.3043389],[14.2677231,48.304727],[14.2668997,48.3050901],[14.2662198,48.3054701],[14.2656096,48.3056859],[14.2650637,48.3058867],[14.2642698,48.3061471],[14.2637494,48.3062738],[14.2627248,48.3064576],[14.2623171,48.3065102],[14.261259,48.3066797],[14.2605402,48.3067475],[14.260048,48.3068465],[14.2592286,48.3070945],[14.2583944,48.3073853],[14.258035,48.307478],[14.2573618,48.3075396],[14.2568253,48.3075699],[14.2559,48.3076761],[14.2545736,48.3078268],[14.2532553,48.3079731],[14.252688,48.30804],[14.251481,48.3081372],[14.2498556,48.3081881],[14.2492534,48.3081907],[14.2475824,48.3081952],[14.2471828,48.3081738],[14.2470661,48.3081426]]}},{"type":"Feature","properties":{"id":"kml_6","priority":"0","stress":"2","tessellate":1,"kmlStyleUrl":"#line-1A237E-6425","kmlStyleIdResolved":"line-1A237E-6425-normal","stroke":"#1a237e","stroke-opacity":1,"stroke-width":6.425},"geometry":{"type":"LineString","coordinates":[[14.2470494,48.3081405],[14.246572,48.3080843],[14.2463118,48.3080959],[14.2456667,48.3082297],[14.2447762,48.3081833],[14.2439126,48.3080968],[14.2430999,48.3079451],[14.2423904,48.3077132],[14.2415603,48.3074982],[14.2410319,48.3074572],[14.2402473,48.307426],[14.2392562,48.3073216],[14.2384851,48.3072271],[14.2379581,48.307162],[14.2367886,48.3071914],[14.2359397,48.3070888],[14.235064,48.3069042],[14.2336276,48.3066],[14.2330241,48.3064992],[14.2315583,48.3063957],[14.2306249,48.3064483],[14.2295319,48.3066669],[14.2271514,48.307269],[14.2253195,48.3079335],[14.2239019,48.3083251],[14.2224482,48.3088273],[14.2219077,48.3089593],[14.2208295,48.3089977],[14.2199738,48.3091395],[14.218622,48.3094945],[14.2181218,48.3096524],[14.2170154,48.3102911],[14.2157789,48.3110715],[14.2144954,48.3117958],[14.2134655,48.3124255],[14.2127936,48.3128697],[14.2115812,48.3136099],[14.2104319,48.3142824],[14.2097949,48.3145955],[14.2092276,48.3150093],[14.2083505,48.3157924],[14.2071891,48.3170695],[14.2065051,48.3178677],[14.2058118,48.3186722],[14.2051278,48.3191867],[14.2046008,48.3196326],[14.2036459,48.3200892],[14.2022726,48.3206814],[14.2005775,48.3211843],[14.1982922,48.321723],[14.1920086,48.322685]]}},{"type":"Feature","properties":{"id":"kml_7","priority":"0","stress":"2","tessellate":1,"kmlStyleUrl":"#icon-1899-DB4436-nodesc","kmlStyleIdResolved":"icon-1899-DB4436-nodesc-normal","marker-color":"#db4436","marker-opacity":1,"marker-scale":1,"icon-href":"https://www.gstatic.com/mapspro/images/stock/503-wht-blank_maps.png"},"geometry":{"type":"Point","coordinates":[14.2846693,48.3066025]}},{"type":"Feature","properties":{"id":"kml_8","priority":"0","stress":"2","tessellate":1,"kmlStyleUrl":"#icon-1899-DB4436-nodesc","kmlStyleIdResolved":"icon-1899-DB4436-nodesc-normal","marker-color":"#db4436","marker-opacity":1,"marker-scale":1,"icon-href":"https://www.gstatic.com/mapspro/images/stock/503-wht-blank_maps.png"},"geometry":{"type":"Point","coordinates":[14.1917533,48.3229729]}},{"type":"Feature","properties":{"id":"kml_9","priority":"0","stress":"2","tessellate":1,"kmlStyleUrl":"#line-FF5252-6813","kmlStyleIdResolved":"line-FF5252-6813-normal","stroke":"#ff5252","stroke-opacity":1,"stroke-width":6.813},"geometry":{"type":"LineString","coordinates":[[14.2904754,48.3330779],[14.2916985,48.3342726],[14.2925193,48.3351106],[14.2928143,48.3354708],[14.2931308,48.336291],[14.2932381,48.3374357],[14.2931791,48.3378993],[14.2928411,48.3385982],[14.2922457,48.3395859],[14.2921706,48.3402527],[14.2922618,48.3407198],[14.2924227,48.3410942],[14.2930718,48.3419821],[14.2937155,48.3428771],[14.2938604,48.3434903],[14.2939194,48.3440608],[14.2939248,48.3449593],[14.293855,48.3454799],[14.2936404,48.3460931],[14.2932864,48.3467491],[14.2927714,48.3476084],[14.2923959,48.3486316],[14.2921277,48.3495442],[14.2915698,48.3515585],[14.2912318,48.3521182],[14.2910602,48.3525888],[14.29091,48.3532447],[14.2909314,48.3539434],[14.2907168,48.3548845],[14.2907168,48.3555974],[14.2905666,48.3562961],[14.2901375,48.3572372],[14.290631,48.3629829],[14.2921116,48.367274],[14.2917614,48.3699974]]}},{"type":"Feature","properties":{"id":"kml_10","priority":"0","stress":"2","tessellate":1,"kmlStyleUrl":"#icon-1899-DB4436-nodesc","kmlStyleIdResolved":"icon-1899-DB4436-nodesc-normal","marker-color":"#db4436","marker-opacity":1,"marker-scale":1,"icon-href":"https://www.gstatic.com/mapspro/images/stock/503-wht-blank_maps.png"},"geometry":{"type":"Point","coordinates":[14.2903508,48.3331092]}},{"type":"Feature","properties":{"id":"kml_11","priority":"0","stress":"2","tessellate":1,"kmlStyleUrl":"#icon-1899-DB4436","kmlStyleIdResolved":"icon-1899-DB4436-normal","marker-color":"#db4436","marker-opacity":1,"marker-scale":1,"icon-href":"https://www.gstatic.com/mapspro/images/stock/503-wht-blank_maps.png"},"geometry":{"type":"Point","coordinates":[14.2918354,48.3700973]}},{"type":"Feature","properties":{"id":"kml_12","priority":"0","stress":"2","tessellate":1,"kmlStyleUrl":"#line-FF5252-6619-nodesc","kmlStyleIdResolved":"line-FF5252-6619-nodesc-normal","stroke":"#ff5252","stroke-opacity":1,"stroke-width":6.619},"geometry":{"type":"LineString","coordinates":[[14.3186206,48.3243548],[14.3431682,48.3344552],[14.3665141,48.3381639],[14.410202,48.3410736],[14.4084854,48.3512847],[14.4189567,48.3551633]]}},{"type":"Feature","properties":{"id":"kml_13","priority":"0","stress":"2","tessellate":1,"kmlStyleUrl":"#icon-1899-DB4436-nodesc","kmlStyleIdResolved":"icon-1899-DB4436-nodesc-normal","marker-color":"#db4436","marker-opacity":1,"marker-scale":1,"icon-href":"https://www.gstatic.com/mapspro/images/stock/503-wht-blank_maps.png"},"geometry":{"type":"Point","coordinates":[14.3161578,48.3258928]}},{"type":"Feature","properties":{"id":"kml_14","priority":"0","stress":"2","tessellate":1,"kmlStyleUrl":"#icon-1899-DB4436-nodesc","kmlStyleIdResolved":"icon-1899-DB4436-nodesc-normal","marker-color":"#db4436","marker-opacity":1,"marker-scale":1,"icon-href":"https://www.gstatic.com/mapspro/images/stock/503-wht-blank_maps.png"},"geometry":{"type":"Point","coordinates":[14.4194979,48.3564152]}},{"type":"Feature","properties":{"id":"kml_15","priority":"0","stress":"2","tessellate":1,"kmlStyleUrl":"#line-7CB342-7006","kmlStyleIdResolved":"line-7CB342-7006-normal","stroke":"#7cb342","stroke-opacity":1,"stroke-width":7.006},"geometry":{"type":"LineString","coordinates":[[14.3453795,48.2872524],[14.3458623,48.2861387],[14.3463665,48.2851321],[14.3471068,48.2840541],[14.3495744,48.2849536],[14.3499821,48.2853391],[14.3500856,48.2853981],[14.3501781,48.2854329],[14.3503216,48.2854151],[14.3504906,48.2854427],[14.3507132,48.2855275],[14.3508178,48.285532],[14.3509036,48.2855177],[14.3509787,48.2854909],[14.3512523,48.2854088],[14.3513904,48.2853535],[14.3516801,48.2853276],[14.351782,48.2853035],[14.3520422,48.2851554],[14.3530025,48.2848751],[14.3532345,48.2848341],[14.3535684,48.2848011],[14.3541746,48.2847493],[14.3548062,48.2847002],[14.3554124,48.2846672],[14.3559596,48.284677],[14.3561795,48.2846636],[14.3567173,48.2845699],[14.3571907,48.2844887],[14.3579015,48.2843593],[14.3585426,48.2842398],[14.3598193,48.2840033],[14.3602967,48.2839149],[14.3606695,48.2838471],[14.3616646,48.2836588],[14.3628542,48.2834178],[14.3631332,48.2833687],[14.363616,48.2833188],[14.3637952,48.283305]]}},{"type":"Feature","properties":{"id":"kml_16","priority":"0","stress":"2","tessellate":1,"kmlStyleUrl":"#line-FF5252-7006-nodesc","kmlStyleIdResolved":"line-FF5252-7006-nodesc-normal","stroke":"#ff5252","stroke-opacity":1,"stroke-width":7.006},"geometry":{"type":"LineString","coordinates":[[14.3638064,48.2833025],[14.3937935,48.2784072],[14.4136231,48.2733792],[14.4502728,48.2714369]]}},{"type":"Feature","properties":{"id":"kml_17","priority":"0","stress":"2","tessellate":1,"kmlStyleUrl":"#icon-1899-DB4436-nodesc","kmlStyleIdResolved":"icon-1899-DB4436-nodesc-normal","marker-color":"#db4436","marker-opacity":1,"marker-scale":1,"icon-href":"https://www.gstatic.com/mapspro/images/stock/503-wht-blank_maps.png"},"geometry":{"type":"Point","coordinates":[14.345814,48.2875959]}},{"type":"Feature","properties":{"id":"kml_18","priority":"0","stress":"2","tessellate":1,"kmlStyleUrl":"#icon-1899-DB4436-nodesc","kmlStyleIdResolved":"icon-1899-DB4436-nodesc-normal","marker-color":"#db4436","marker-opacity":1,"marker-scale":1,"icon-href":"https://www.gstatic.com/mapspro/images/stock/503-wht-blank_maps.png"},"geometry":{"type":"Point","coordinates":[14.4504256,48.2716445]}},{"type":"Feature","properties":{"id":"kml_19","priority":"0","stress":"2","tessellate":1,"kmlStyleUrl":"#line-FF5252-6813-nodesc","kmlStyleIdResolved":"line-FF5252-6813-nodesc-normal","stroke":"#ff5252","stroke-opacity":1,"stroke-width":6.813},"geometry":{"type":"LineString","coordinates":[[14.3323063,48.2435386],[14.333347,48.2423668],[14.3348491,48.2407449],[14.3368553,48.2380224],[14.338572,48.2356714],[14.339956,48.2336632],[14.3403315,48.2327842],[14.3408679,48.2316837],[14.3423163,48.2294896],[14.3426918,48.2284247],[14.3429171,48.2247009],[14.3429815,48.2233142],[14.3432605,48.2217059],[14.3434858,48.2207909],[14.344108,48.2197544],[14.3445908,48.219254],[14.3458354,48.218239],[14.3468117,48.2172453],[14.3474554,48.2166234],[14.3477773,48.2162874],[14.3483352,48.2159228],[14.3489682,48.2157726],[14.3499123,48.21598],[14.3510603,48.2163017],[14.3521225,48.2163374],[14.3528413,48.2161301],[14.3544292,48.2155296],[14.35503,48.2151221],[14.3555557,48.2147646],[14.3565213,48.2143071],[14.356811,48.2140497],[14.3569033,48.2139714],[14.3571259,48.2139375],[14.3571823,48.2138964]]}},{"type":"Feature","properties":{"id":"kml_20","priority":"0","stress":"2","tessellate":1,"kmlStyleUrl":"#line-FFEA00-6425","kmlStyleIdResolved":"line-FFEA00-6425-normal","stroke":"#ffea00","stroke-opacity":1,"stroke-width":6.425},"geometry":{"type":"LineString","coordinates":[[14.3571823,48.2138964],[14.3573776,48.2137258],[14.3576417,48.2134702],[14.3577464,48.2133693],[14.3577973,48.2132593],[14.357796,48.2130288],[14.3577034,48.2127607],[14.3577115,48.2126838],[14.3577021,48.2125855],[14.3577638,48.212329],[14.3579864,48.2119814],[14.3581044,48.2118384],[14.3581031,48.2118125],[14.3580749,48.2117455],[14.3580374,48.211682],[14.3580441,48.2116454],[14.3581031,48.2115864],[14.3584209,48.2112915],[14.3586248,48.2110385],[14.3587508,48.2108616],[14.3589466,48.2105184],[14.3590821,48.2101904],[14.3591572,48.2099062],[14.3592082,48.2095791],[14.3592068,48.2092359],[14.3591666,48.2089508],[14.3590955,48.2086228],[14.3589989,48.2083744],[14.3586476,48.2077398],[14.3584974,48.2074985],[14.3578241,48.2064126],[14.3575613,48.2059612],[14.3574822,48.2058075],[14.3574312,48.2056689],[14.3574205,48.2055527],[14.3574459,48.2054214],[14.3574781,48.2053561],[14.3575881,48.2052694],[14.3576753,48.2052077],[14.3577611,48.2051586],[14.3583633,48.2052051],[14.3599256,48.205323],[14.3613539,48.205433],[14.3624831,48.2055161],[14.36286,48.2055286],[14.3631537,48.205508],[14.3635493,48.2054446],[14.3639731,48.2053427],[14.3642333,48.2052658],[14.3648488,48.2050343],[14.3655167,48.2047868],[14.3660277,48.2045973],[14.3664179,48.2044587],[14.3669624,48.2043202],[14.367472,48.2042594],[14.3678476,48.2042299],[14.3680594,48.2042505],[14.3683531,48.2041906],[14.3688748,48.2041289],[14.3696768,48.2041262],[14.3705003,48.204111],[14.3713908,48.2041075],[14.3715691,48.20412]]}},{"type":"Feature","properties":{"id":"kml_21","priority":"0","stress":"2","tessellate":1,"kmlStyleUrl":"#icon-1899-DB4436-nodesc","kmlStyleIdResolved":"icon-1899-DB4436-nodesc-normal","marker-color":"#db4436","marker-opacity":1,"marker-scale":1,"icon-href":"https://www.gstatic.com/mapspro/images/stock/503-wht-blank_maps.png"},"geometry":{"type":"Point","coordinates":[14.3716463,48.2041439]}},{"type":"Feature","properties":{"id":"kml_22","priority":"0","stress":"2","tessellate":1,"kmlStyleUrl":"#icon-1899-DB4436-nodesc","kmlStyleIdResolved":"icon-1899-DB4436-nodesc-normal","marker-color":"#db4436","marker-opacity":1,"marker-scale":1,"icon-href":"https://www.gstatic.com/mapspro/images/stock/503-wht-blank_maps.png"},"geometry":{"type":"Point","coordinates":[14.3322752,48.2436729]}},{"type":"Feature","properties":{"id":"kml_23","priority":"0","stress":"2","tessellate":1,"kmlStyleUrl":"#line-7CB342-6425-nodesc","kmlStyleIdResolved":"line-7CB342-6425-nodesc-normal","stroke":"#7cb342","stroke-opacity":1,"stroke-width":6.425},"geometry":{"type":"LineString","coordinates":[[14.2648475,48.2679731],[14.2640295,48.2672679],[14.263198,48.2666126],[14.2619212,48.2655699],[14.2616557,48.2653967],[14.2612105,48.2650378],[14.2609369,48.2648039],[14.2607947,48.2645629],[14.2603039,48.2641308],[14.2595448,48.2634648],[14.2590137,48.2630791],[14.2588448,48.2630434],[14.2585953,48.2627362],[14.2583003,48.2624595],[14.2579677,48.2621131],[14.2573213,48.2615167],[14.256192,48.2605435],[14.2556556,48.2600828],[14.2552881,48.2597899],[14.2543789,48.2590149],[14.2537271,48.2584596],[14.2526435,48.2577096],[14.2519729,48.2572649],[14.2516216,48.256997],[14.250951,48.2565042],[14.2508491,48.2564452],[14.2506613,48.2564292],[14.2505379,48.2563595],[14.2505379,48.2561988],[14.2500873,48.2558809],[14.2478852,48.2540718],[14.2473971,48.2535789],[14.2471396,48.2533521],[14.2469009,48.2530717],[14.2465924,48.2528056],[14.2460345,48.2524038],[14.2455544,48.252093],[14.2451628,48.2519734],[14.2447712,48.2518734],[14.2439504,48.2517519],[14.2433899,48.2516519],[14.2431136,48.2515858],[14.2430278,48.2515322],[14.2429929,48.2514554],[14.2432692,48.2511697],[14.243355,48.2511536],[14.2435776,48.2512358],[14.2439209,48.251334],[14.2441704,48.2513697],[14.244385,48.2513661],[14.2444949,48.2513376],[14.2445298,48.2512911],[14.2445486,48.2512375],[14.2445459,48.2511697],[14.2444493,48.2510447],[14.2439692,48.2505785],[14.2439022,48.2505481],[14.2438458,48.2505392],[14.243591,48.2502695],[14.2434757,48.2502767],[14.2434006,48.2500891],[14.2429983,48.2496891],[14.2428159,48.2494747],[14.2424806,48.2492086],[14.2422204,48.2490104],[14.2419871,48.2487817],[14.2419039,48.248646],[14.2414238,48.2481995],[14.2412924,48.2481709],[14.2411663,48.2479816],[14.2411422,48.2479119],[14.2409866,48.2476922],[14.2404984,48.2471993],[14.2402785,48.2469492],[14.2401417,48.2467492],[14.2399057,48.2464527],[14.2398359,48.246333],[14.2392029,48.2456203],[14.2389347,48.2453684],[14.2386102,48.245113],[14.2382105,48.2447094],[14.2381407,48.2446638],[14.2380496,48.2445012],[14.2375105,48.2438698],[14.2372443,48.2435523],[14.2369512,48.2432419],[14.2366749,48.2429374],[14.2363953,48.2426351],[14.236117,48.2423399],[14.2358455,48.2420822],[14.2355726,48.2417933],[14.2353218,48.2415494],[14.2351716,48.2413583],[14.2348095,48.2407456],[14.2346915,48.2404955],[14.2345842,48.2402275],[14.2344796,48.239881],[14.2344286,48.2395398],[14.2343723,48.2389395],[14.2343615,48.2386483],[14.2343455,48.2385269],[14.2343615,48.2382875],[14.234332,48.2382339],[14.2343267,48.2380267],[14.2344023,48.2380001],[14.2344774,48.2379143],[14.2345404,48.2377598],[14.2346692,48.2375222],[14.2348355,48.2372667],[14.234987,48.2370372],[14.2350863,48.2368362],[14.2351989,48.2366325],[14.2352445,48.2364369],[14.2352848,48.2362029],[14.2352754,48.2361019],[14.2352579,48.2359867],[14.2352056,48.2357679],[14.2351372,48.2355714],[14.2351104,48.2354945],[14.235042,48.2354249],[14.2351319,48.2351533],[14.2350648,48.2350399],[14.2350675,48.2349693],[14.2350299,48.2348362],[14.2349347,48.2345477],[14.2348891,48.2344735],[14.2347966,48.2344253],[14.2347041,48.234235],[14.2347094,48.2341707],[14.2346853,48.2340724],[14.2346048,48.2339617],[14.2345337,48.2337678],[14.2344828,48.2335409],[14.2344975,48.2334453],[14.2344694,48.233247],[14.2343996,48.2329683],[14.2342564,48.2325246],[14.2341505,48.2321458],[14.234129,48.2320466],[14.2341585,48.2318823],[14.2341652,48.2317179],[14.2341237,48.2315008],[14.2340419,48.231223],[14.2339158,48.2308513],[14.2338608,48.2306566],[14.2337066,48.2301483],[14.2336315,48.2299562],[14.2335738,48.2297114],[14.2335738,48.2294568],[14.2335684,48.2292263],[14.233555,48.2290601],[14.2335658,48.2287618],[14.2335564,48.2286447],[14.2335631,48.2284893],[14.2336073,48.2282445],[14.2336462,48.2280015],[14.2337146,48.227737],[14.2338206,48.2274619],[14.2339929,48.227079],[14.2341116,48.226832],[14.2342846,48.2265416],[14.2343329,48.2264702],[14.2342953,48.2264005],[14.2343436,48.2262111],[14.2343651,48.2260878],[14.2345582,48.2257161],[14.2346869,48.2254427],[14.2347647,48.2251961],[14.2348505,48.2247923],[14.2349739,48.2242687],[14.2350249,48.2240704],[14.2351644,48.2237563],[14.2353655,48.2233377],[14.2354192,48.2231876],[14.2356498,48.222698],[14.2358597,48.2223097],[14.2362131,48.2218402],[14.2362451,48.2218]]}},{"type":"Feature","properties":{"id":"kml_24","priority":"0","stress":"2","tessellate":1,"kmlStyleUrl":"#line-FF5252-7006","kmlStyleIdResolved":"line-FF5252-7006-normal","stroke":"#ff5252","stroke-opacity":1,"stroke-width":7.006},"geometry":{"type":"LineString","coordinates":[[14.2648475,48.2679731],[14.2651116,48.2681986],[14.2654181,48.2684218],[14.2656159,48.2685602],[14.2660296,48.2688632],[14.2664909,48.2692203],[14.2668718,48.2695149],[14.2670041,48.2696256],[14.2671128,48.2697158],[14.2672583,48.2698323],[14.2676244,48.270118],[14.2678886,48.2703134],[14.2681742,48.2705241],[14.2683151,48.2706339],[14.2684961,48.2708339],[14.2687107,48.2710472],[14.2689695,48.2712677],[14.2690969,48.2713909],[14.2693598,48.2715748],[14.2696562,48.2718247],[14.2699217,48.2720621],[14.2704823,48.27257],[14.2709584,48.2729851],[14.2711609,48.2731824],[14.2715444,48.2735403],[14.2717818,48.2737679],[14.2723142,48.2742714],[14.2726468,48.27459],[14.2727917,48.2747096],[14.2731055,48.2749944],[14.2733603,48.2751996],[14.2734917,48.2753112],[14.2736714,48.2753782],[14.2738122,48.2752675],[14.274,48.2751381],[14.2741918,48.2752702],[14.2743956,48.2753808],[14.274751,48.2755692],[14.2751802,48.2758218],[14.2755691,48.2760592],[14.2757636,48.2761913],[14.2761873,48.2765037],[14.2762987,48.276609],[14.2763872,48.2767134],[14.276646,48.2769268],[14.2768847,48.2770892],[14.2769035,48.2771294],[14.277055,48.2772704],[14.2770631,48.277332],[14.2772146,48.2774471],[14.2773273,48.2775033],[14.2775164,48.2776756],[14.2775767,48.2777524],[14.277731,48.2778978],[14.2780287,48.2780558],[14.2783921,48.278262],[14.2786523,48.2783811],[14.2791089,48.2785565],[14.2794107,48.2786431],[14.2796112,48.2787069],[14.279919,48.2788194],[14.2805345,48.2791068],[14.2811011,48.2794874],[14.2813184,48.2796507],[14.2815075,48.2797757],[14.2817006,48.2799435],[14.2820507,48.2803326],[14.2823269,48.2806119],[14.2827588,48.2809082],[14.2835849,48.2813304],[14.2840864,48.281558],[14.2848267,48.2818828],[14.2852317,48.2820506],[14.2854235,48.2820818]]}},{"type":"Feature","properties":{"id":"kml_25","priority":"0","stress":"2","tessellate":1,"kmlStyleUrl":"#icon-1899-DB4436-nodesc","kmlStyleIdResolved":"icon-1899-DB4436-nodesc-normal","marker-color":"#db4436","marker-opacity":1,"marker-scale":1,"icon-href":"https://www.gstatic.com/mapspro/images/stock/503-wht-blank_maps.png"},"geometry":{"type":"Point","coordinates":[14.2877029,48.2822999]}},{"type":"Feature","properties":{"id":"kml_26","priority":"0","stress":"2","tessellate":1,"kmlStyleUrl":"#icon-1899-DB4436-nodesc","kmlStyleIdResolved":"icon-1899-DB4436-nodesc-normal","marker-color":"#db4436","marker-opacity":1,"marker-scale":1,"icon-href":"https://www.gstatic.com/mapspro/images/stock/503-wht-blank_maps.png"},"geometry":{"type":"Point","coordinates":[14.2363712,48.2218312]}},{"type":"Feature","properties":{"id":"kml_27","priority":"0","stress":"2","tessellate":1,"kmlStyleUrl":"#line-FF5252-6425","kmlStyleIdResolved":"line-FF5252-6425-normal","stroke":"#ff5252","stroke-opacity":1,"stroke-width":6.425},"geometry":{"type":"LineString","coordinates":[[14.2973059,48.2407225],[14.2974132,48.2402008],[14.2975312,48.2355561],[14.2975741,48.2344555],[14.2976536,48.2322189],[14.2975249,48.2321332],[14.2974229,48.2321046],[14.2974068,48.2316472],[14.2972995,48.2313149],[14.2970099,48.2309397],[14.2963179,48.2304144],[14.2969455,48.2297104],[14.2978682,48.2301178],[14.2985387,48.2302536],[14.2990591,48.2302572],[14.2999442,48.2301821],[14.3004806,48.23025],[14.30106,48.2303858],[14.3014999,48.2303394],[14.3016447,48.2302071],[14.3023475,48.2292101],[14.302621,48.2288206],[14.3028464,48.2286705]]}},{"type":"Feature","properties":{"id":"kml_28","priority":"0","stress":"2","tessellate":1,"kmlStyleUrl":"#icon-1899-DB4436","kmlStyleIdResolved":"icon-1899-DB4436-normal","marker-color":"#db4436","marker-opacity":1,"marker-scale":1,"icon-href":"https://www.gstatic.com/mapspro/images/stock/503-wht-blank_maps.png"},"geometry":{"type":"Point","coordinates":[14.2972043,48.2408401]}},{"type":"Feature","properties":{"id":"kml_29","priority":"0","stress":"2","tessellate":1,"kmlStyleUrl":"#icon-1899-DB4436","kmlStyleIdResolved":"icon-1899-DB4436-normal","marker-color":"#db4436","marker-opacity":1,"marker-scale":1,"icon-href":"https://www.gstatic.com/mapspro/images/stock/503-wht-blank_maps.png"},"geometry":{"type":"Point","coordinates":[14.3029067,48.2288078]}},{"type":"Feature","properties":{"id":"kml_30","priority":"0","stress":"2","tessellate":1,"kmlStyleUrl":"#line-7CB342-6619","kmlStyleIdResolved":"line-7CB342-6619-normal","stroke":"#7cb342","stroke-opacity":1,"stroke-width":6.619},"geometry":{"type":"LineString","coordinates":[[14.3592793,48.2491134],[14.3609477,48.2485919],[14.3615109,48.2483775],[14.3636889,48.2477203],[14.3666822,48.2467343],[14.3679053,48.2463485],[14.3682164,48.2462913],[14.3690962,48.2459913],[14.3704641,48.2455733],[14.371757,48.2451696],[14.3733287,48.2446766],[14.3740744,48.2444373],[14.3748683,48.2441122],[14.376129,48.2436799],[14.3767191,48.243462],[14.3778349,48.2431119],[14.3787361,48.2428296],[14.3789882,48.2428011],[14.3800504,48.2424617],[14.3807531,48.242158],[14.3823463,48.2416471],[14.3865226,48.2403361],[14.3883786,48.2397502],[14.3902884,48.2391285],[14.391093,48.2387712],[14.3924127,48.2383925],[14.3950305,48.2375207],[14.3976376,48.2366703],[14.39863,48.2363506],[14.3994588,48.2360879],[14.400572,48.2357539],[14.4019533,48.2353197],[14.4025675,48.2350803],[14.4032475,48.2348597],[14.403277,48.2348356],[14.4028478,48.2339548],[14.4026708,48.233183],[14.402703,48.2321968],[14.4034261,48.2321891],[14.4039223,48.2321864],[14.4046706,48.2321534],[14.4052875,48.2321078],[14.4057663,48.2320462],[14.4062115,48.2319488],[14.4062644,48.2318376],[14.4061625,48.2313302],[14.4058997,48.2306298],[14.4055081,48.2300151],[14.4053525,48.2294219],[14.4051755,48.2291039],[14.4051111,48.2289324],[14.4052184,48.2287287],[14.4054061,48.2286429],[14.4071281,48.2281676],[14.4073856,48.2280032],[14.4074446,48.2278782],[14.4073159,48.2276888],[14.4070584,48.2273886],[14.406817,48.2267346],[14.4063173,48.2256863],[14.4062368,48.2254004],[14.4063709,48.2252324],[14.4066767,48.2249286],[14.4059257,48.223592],[14.405695,48.2229666],[14.4066177,48.2227021],[14.407358,48.2225377],[14.4079853,48.2223938],[14.4084493,48.2223008],[14.4087242,48.2222347],[14.4089549,48.2222419],[14.4094444,48.222098],[14.4102812,48.2218621],[14.4108539,48.2216629],[14.4113072,48.2214994],[14.4114695,48.2214663],[14.4115794,48.2215038],[14.4115928,48.2215289],[14.4117806,48.2215021],[14.4118839,48.221477],[14.4119979,48.221435],[14.4120086,48.2213841],[14.4120274,48.2213519],[14.4120931,48.2213135],[14.4122527,48.2212528],[14.4127703,48.2209642],[14.413119,48.220806],[14.4134503,48.220672],[14.4140132,48.2204594],[14.4149064,48.2201949],[14.4153999,48.2200608],[14.4163762,48.2197749],[14.41691,48.2196159],[14.4172775,48.2195444],[14.4176503,48.2194175],[14.4180754,48.2193085],[14.4185797,48.2191941],[14.4191054,48.2190636],[14.4197236,48.2189287],[14.4201152,48.2189028],[14.4201783,48.2188974],[14.4206343,48.2188215],[14.4210782,48.2187366],[14.4220612,48.2185213],[14.4226379,48.2184176],[14.4229141,48.2184194],[14.4231341,48.2183586],[14.4233889,48.2182943],[14.4234962,48.2182997],[14.4237483,48.2182514],[14.4238529,48.2181924],[14.4244028,48.2181013],[14.4247085,48.2180477],[14.4249231,48.2180959],[14.4250063,48.2180352],[14.4251672,48.217994],[14.4254864,48.2179118],[14.4263581,48.2177492],[14.4279889,48.2174436],[14.4280908,48.217465],[14.4283268,48.2174186],[14.4283697,48.2173739],[14.4288499,48.2172899],[14.4295526,48.2171988],[14.4306443,48.2171023],[14.4314543,48.2170772],[14.4336939,48.2169789],[14.4341419,48.2169486],[14.4349197,48.216945],[14.4355715,48.2169057],[14.4360006,48.2168449],[14.4376985,48.2167448],[14.4380418,48.2167484],[14.4382,48.2167913],[14.4383395,48.2169003],[14.4385434,48.2168806],[14.438648,48.2167734],[14.4388169,48.2167109],[14.4394875,48.2166537],[14.4407428,48.2166143],[14.4418854,48.2166215],[14.4427383,48.2166876],[14.4432399,48.2167216],[14.4434277,48.2167895],[14.4442699,48.2167823],[14.4451631,48.2168646],[14.4452596,48.2169074],[14.4455359,48.2168949],[14.4456485,48.2168842],[14.4462279,48.216911],[14.4466678,48.2169325],[14.4474805,48.2169682],[14.4480089,48.2170111],[14.4487814,48.21697],[14.4501359,48.2167931],[14.4513804,48.2166358],[14.4524574,48.21651],[14.4538548,48.216367],[14.4541123,48.2163813],[14.4541955,48.2163974],[14.4543537,48.2163759],[14.4545763,48.2163259],[14.4548258,48.216308],[14.4549948,48.2163313],[14.455204,48.2163295],[14.4553193,48.2162615],[14.4553984,48.2162481],[14.4553676,48.2161186],[14.4554923,48.2160793],[14.4557257,48.2160462],[14.4562728,48.2159854],[14.4570788,48.2159041],[14.4578728,48.2158308],[14.459057,48.2157325],[14.4602371,48.2156968],[14.4614912,48.2156903],[14.4631756,48.2156724],[14.4646562,48.2157046],[14.4650907,48.2156795],[14.4651605,48.2157403],[14.465882,48.2157081],[14.4667161,48.2156849],[14.4673411,48.2157028],[14.4683898,48.2156938],[14.4701091,48.2156009]]}},{"type":"Feature","properties":{"id":"kml_31","priority":"0","stress":"2","tessellate":1,"kmlStyleUrl":"#icon-1899-DB4436-nodesc","kmlStyleIdResolved":"icon-1899-DB4436-nodesc-normal","marker-color":"#db4436","marker-opacity":1,"marker-scale":1,"icon-href":"https://www.gstatic.com/mapspro/images/stock/503-wht-blank_maps.png"},"geometry":{"type":"Point","coordinates":[14.4703621,48.2156124]}},{"type":"Feature","properties":{"id":"kml_32","priority":"0","stress":"2","tessellate":1,"kmlStyleUrl":"#icon-1899-DB4436-nodesc","kmlStyleIdResolved":"icon-1899-DB4436-nodesc-normal","marker-color":"#db4436","marker-opacity":1,"marker-scale":1,"icon-href":"https://www.gstatic.com/mapspro/images/stock/503-wht-blank_maps.png"},"geometry":{"type":"Point","coordinates":[14.3591191,48.2493072]}},{"type":"Feature","properties":{"id":"kml_33","priority":"0","stress":"2","tessellate":1,"kmlStyleUrl":"#line-FFEA00-6425","kmlStyleIdResolved":"line-FFEA00-6425-normal","stroke":"#ffea00","stroke-opacity":1,"stroke-width":6.425},"geometry":{"type":"LineString","coordinates":[[14.2897784,48.2905974],[14.2889174,48.2904078],[14.2884125,48.2902387],[14.2881955,48.2901325],[14.2880557,48.2900344],[14.2879545,48.2899407],[14.2878432,48.2898086],[14.2877399,48.2895909],[14.2877198,48.2894887],[14.2877178,48.2894046],[14.287807,48.2888164],[14.2874985,48.2887807],[14.2875917,48.2883086],[14.2876045,48.2880632],[14.2874503,48.28779],[14.2870439,48.287069],[14.2864592,48.2861065],[14.285896,48.2852391],[14.2856398,48.2850428],[14.2854507,48.2848688],[14.2853582,48.2847898],[14.2843778,48.2843199],[14.2835866,48.2839291],[14.2832205,48.2837176],[14.2832667,48.2836823],[14.2821945,48.2828492],[14.2810271,48.2818493],[14.2807696,48.2816797],[14.2804169,48.281511],[14.2794721,48.2811955],[14.2792314,48.2810737],[14.2802265,48.2804784],[14.2795036,48.2799777],[14.2790477,48.279648],[14.2785622,48.2793396],[14.2773069,48.2785685],[14.2765291,48.2781401],[14.2761375,48.2779294],[14.2758907,48.2777616],[14.2759067,48.2777188],[14.2756371,48.277585],[14.2754601,48.2775484],[14.2746005,48.2772636],[14.2742679,48.2770566],[14.2740399,48.2768208],[14.2739112,48.276585],[14.2738602,48.2762842],[14.2721302,48.2754425],[14.2710895,48.2749713],[14.2688686,48.2744429],[14.2665727,48.2742858],[14.2645986,48.2743072],[14.2626566,48.2743215],[14.2606906,48.2746482],[14.2597035,48.2747142],[14.2590592,48.2746929],[14.2584893,48.2747197],[14.2579032,48.2747893],[14.257243,48.2748944],[14.2565881,48.2749637],[14.2559779,48.2749593],[14.2555139,48.2749423],[14.2550465,48.2748271],[14.2545711,48.2746817],[14.2538898,48.274587],[14.2532971,48.2745674],[14.2528049,48.2745745],[14.252302,48.2746745],[14.2520404,48.2747325],[14.2520042,48.2747727],[14.2519493,48.2747468],[14.2516609,48.2747776],[14.2509555,48.2747584],[14.2496251,48.274621],[14.2492308,48.2745853],[14.2488687,48.2745683],[14.2485563,48.2745692],[14.2482894,48.2745772],[14.24782,48.2745978],[14.2471789,48.2746254],[14.2466264,48.2746611],[14.2456957,48.2747075],[14.2449515,48.2747527],[14.2442501,48.2747821],[14.2440073,48.274788],[14.2438249,48.2747848],[14.2434856,48.2747652],[14.243322,48.27475],[14.2429291,48.2746822],[14.242292,48.2745456],[14.2409682,48.2742798],[14.2402273,48.2741356],[14.2394783,48.2739959],[14.2396767,48.273895],[14.2383947,48.2736237],[14.237708,48.273463],[14.2368001,48.2732952],[14.2363454,48.2732452],[14.2357567,48.2732283],[14.2352793,48.273264],[14.2339475,48.2735094],[14.2324241,48.2737986],[14.2311688,48.2740914],[14.2291571,48.2744636],[14.2271361,48.2748916],[14.2263515,48.2750447],[14.2258262,48.2750734],[14.2253116,48.2750807],[14.2247779,48.2750414],[14.2242347,48.2749263],[14.2238257,48.2747951],[14.2232624,48.2745951],[14.2213741,48.2738954],[14.2199848,48.2733544],[14.2183352,48.272768],[14.2180214,48.2726743],[14.2174755,48.2726002],[14.216986,48.2726037],[14.2165535,48.2726618],[14.2162401,48.2727189],[14.2159427,48.2727957],[14.2148617,48.2730813],[14.2140946,48.273275],[14.2136239,48.2733428],[14.213347,48.2733611],[14.2130593,48.2733598],[14.2125966,48.2732866],[14.2123706,48.2732348],[14.2119784,48.2730991],[14.2116887,48.2729751],[14.211407,48.2728099],[14.2110986,48.2725957],[14.2107539,48.2723601],[14.209562,48.2715174],[14.2090015,48.2713906],[14.2089525,48.270793],[14.2089106,48.2704147],[14.208908,48.2703744],[14.2088846,48.2703551],[14.2088357,48.270359],[14.2087809,48.2703731],[14.2087368,48.2703684],[14.2087211,48.2702696],[14.2087012,48.2702465],[14.2086304,48.2702484],[14.2083671,48.2702846],[14.2075283,48.2703636],[14.2068808,48.2703951],[14.2063085,48.2704667],[14.2054247,48.27061],[14.2046455,48.2707595],[14.2036974,48.2709385],[14.2030959,48.2710333],[14.2026178,48.2711076],[14.2023784,48.2711032],[14.202206,48.2710755],[14.2018245,48.2709349],[14.2016884,48.27088],[14.2015747,48.2707859],[14.2015818,48.2706792],[14.2016103,48.2705359],[14.2014274,48.2705116],[14.2013695,48.2706119],[14.2013277,48.2706104],[14.2005659,48.2704747],[14.200574,48.2707117],[14.2005672,48.2708264],[14.2005304,48.2708822],[14.2004724,48.2709114],[14.2003462,48.2709078],[14.2001228,48.2708537],[14.1998877,48.2707901],[14.1996218,48.2707318],[14.197708,48.2705997],[14.1964353,48.270514],[14.1956762,48.2704979],[14.1953436,48.2705033],[14.1946838,48.2705247],[14.194209,48.2705488],[14.1934567,48.2705672],[14.1929987,48.2703253],[14.1926423,48.2701447],[14.1924677,48.2702587],[14.1923656,48.2703699],[14.1919918,48.2702822],[14.1911031,48.27009],[14.1905667,48.2700387],[14.1892041,48.2699927],[14.1886395,48.2699686],[14.1880071,48.2698985],[14.1873758,48.2697332],[14.1868616,48.2695514],[14.1860538,48.2693044],[14.1859914,48.269238],[14.1857252,48.2691367]]}},{"type":"Feature","properties":{"id":"kml_34","priority":"0","stress":"2","tessellate":1,"kmlStyleUrl":"#icon-1899-DB4436-nodesc","kmlStyleIdResolved":"icon-1899-DB4436-nodesc-normal","marker-color":"#db4436","marker-opacity":1,"marker-scale":1,"icon-href":"https://www.gstatic.com/mapspro/images/stock/503-wht-blank_maps.png"},"geometry":{"type":"Point","coordinates":[14.2898707,48.290614]}},{"type":"Feature","properties":{"id":"kml_35","priority":"0","stress":"2","tessellate":1,"kmlStyleUrl":"#icon-1899-DB4436-nodesc","kmlStyleIdResolved":"icon-1899-DB4436-nodesc-normal","marker-color":"#db4436","marker-opacity":1,"marker-scale":1,"icon-href":"https://www.gstatic.com/mapspro/images/stock/503-wht-blank_maps.png"},"geometry":{"type":"Point","coordinates":[14.1851211,48.2695125]}},{"type":"Feature","properties":{"id":"kml_36","priority":"0","stress":"2","tessellate":1,"kmlStyleUrl":"#line-01579B-6619","kmlStyleIdResolved":"line-01579B-6619-normal","stroke":"#01579b","stroke-opacity":1,"stroke-width":6.619},"geometry":{"type":"LineString","coordinates":[[14.2898481,48.2905575],[14.2881905,48.2888478],[14.2882924,48.2881232],[14.2882495,48.2876021],[14.2878955,48.2869346],[14.286903,48.2857745],[14.2862539,48.2849892],[14.285047,48.2831401],[14.2846071,48.2828617],[14.2841028,48.2830401],[14.2838292,48.2829545],[14.2821126,48.2817657],[14.2817425,48.2817229],[14.2801653,48.280527]]}}]}